{"type": "FeatureCollection", "features": [ {"type": "Feature", "properties": {"norad_id": 66599, "name": "STARLINK-35930", "group": "last-30-days", "lat": -33.984858748278384, "lon": 69.75265228262414, "alt_km": 416.99769567089515, "timestamp": "2025-12-10T21:43:20.862745+00:00", "meta": {"OBJECT_NAME": "STARLINK-35930", "OBJECT_ID": "2025-270M", "EPOCH": "2025-12-10T14:00:03.000384", "MEAN_MOTION": 15.50670081, "ECCENTRICITY": 0.00017905, "INCLINATION": 42.9995, "RA_OF_ASC_NODE": 205.2959, "ARG_OF_PERICENTER": 260.7063, "MEAN_ANOMALY": 336.1961, "EPHEMERIS_TYPE": 0, "CLASSIFICATION_TYPE": "U", "NORAD_CAT_ID": 66599, "ELEMENT_SET_NO": 999, "REV_AT_EPOCH": 405, "BSTAR": -0.0033914994, "MEAN_MOTION_DOT": -0.00195071, "MEAN_MOTION_DDOT": 0}, "tle": {"line1": "1 66599U 25270M   25344.58336806 -.00195071  00000+0 -33915-2 0  9995", "line2": "2 66599  42.9995 205.2959 0001790 260.7063 336.1961 15.50670081  4059"}}, "geometry": {"type": "Point", "coordinates": [69.75265228262414, -33.984858748278384]}}, {"type": "Feature", "properties": {"norad_id": 66600, "name": "STARLINK-35980", "group": "last-30-days", "lat": -34.872594210067405, "lon": 71.8144629605714, "alt_km": 416.8693866630492, "timestamp": "2025-12-10T21:43:20.862756+00:00", "meta": {"OBJECT_NAME": "STARLINK-35980", "OBJECT_ID": "2025-270N", "EPOCH": "2025-12-10T14:00:03.000384", "MEAN_MOTION": 15.50695501, "ECCENTRICITY": 0.00020818, "INCLINATION": 42.9999, "RA_OF_ASC_NODE": 205.2907, "ARG_OF_PERICENTER": 256.7781, "MEAN_ANOMALY": 342.0464, "EPHEMERIS_TYPE": 0, "CLASSIFICATION_TYPE": "U", "NORAD_CAT_ID": 66600, "ELEMENT_SET_NO": 999, "REV_AT_EPOCH": 395, "BSTAR": -0.0046486271, "MEAN_MOTION_DOT": -0.00265152, "MEAN_MOTION_DDOT": 0}, "tle": {"line1": "1 66600U 25270N   25344.58336806 -.00265152  00000+0 -46486-2 0  9993", "line2": "2 66600  42.9999 205.2907 0002081 256.7781 342.0464 15.50695501  3951"}}, "geometry": {"type": "Point", "coordinates": [71.8144629605714, -34.872594210067405]}}, {"type": "Feature", "properties": {"norad_id": 66601, "name": "STARLINK-35978", "group": "last-30-days", "lat": -35.71883174533349, "lon": 73.90753133775577, "alt_km": 416.9277206868819, "timestamp": "2025-12-10T21:43:20.862767+00:00", "meta": {"OBJECT_NAME": "STARLINK-35978", "OBJECT_ID": "2025-270P", "EPOCH": "2025-12-10T14:00:03.000384", "MEAN_MOTION": 15.50688364, "ECCENTRICITY": 0.00018854, "INCLINATION": 42.9996, "RA_OF_ASC_NODE": 205.2857, "ARG_OF_PERICENTER": 252.7748, "MEAN_ANOMALY": 347.9494, "EPHEMERIS_TYPE": 0, "CLASSIFICATION_TYPE": "U", "NORAD_CAT_ID": 66601, "ELEMENT_SET_NO": 999, "REV_AT_EPOCH": 389, "BSTAR": -0.0038230387, "MEAN_MOTION_DOT": -0.00219323, "MEAN_MOTION_DDOT": 0}, "tle": {"line1": "1 66601U 25270P   25344.58336806 -.00219323  00000+0 -38230-2 0  9991", "line2": "2 66601  42.9996 205.2857 0001885 252.7748 347.9494 15.50688364  3892"}}, "geometry": {"type": "Point", "coordinates": [73.90753133775577, -35.71883174533349]}}, {"type": "Feature", "properties": {"norad_id": 66602, "name": "STARLINK-36050", "group": "last-30-days", "lat": -36.528802644581525, "lon": 76.0467516774684, "alt_km": 417.0925045038266, "timestamp": "2025-12-10T21:43:20.862777+00:00", "meta": {"OBJECT_NAME": "STARLINK-36050", "OBJECT_ID": "2025-270Q", "EPOCH": "2025-12-10T14:00:03.000384", "MEAN_MOTION": 15.50665996, "ECCENTRICITY": 0.00017095, "INCLINATION": 42.9996, "RA_OF_ASC_NODE": 205.281, "ARG_OF_PERICENTER": 258.2318, "MEAN_ANOMALY": 344.4168, "EPHEMERIS_TYPE": 0, "CLASSIFICATION_TYPE": "U", "NORAD_CAT_ID": 66602, "ELEMENT_SET_NO": 999, "REV_AT_EPOCH": 395, "BSTAR": -0.0030731006, "MEAN_MOTION_DOT": -0.00177162, "MEAN_MOTION_DDOT": 0}, "tle": {"line1": "1 66602U 25270Q   25344.58336806 -.00177162  00000+0 -30731-2 0  9994", "line2": "2 66602  42.9996 205.2810 0001709 258.2318 344.4168 15.50665996  3954"}}, "geometry": {"type": "Point", "coordinates": [76.0467516774684, -36.528802644581525]}}, {"type": "Feature", "properties": {"norad_id": 66603, "name": "STARLINK-36048", "group": "last-30-days", "lat": -37.295163190048626, "lon": 78.21504280130462, "alt_km": 417.21666886205276, "timestamp": "2025-12-10T21:43:20.862788+00:00", "meta": {"OBJECT_NAME": "STARLINK-36048", "OBJECT_ID": "2025-270R", "EPOCH": "2025-12-10T14:00:03.000384", "MEAN_MOTION": 15.50662819, "ECCENTRICITY": 0.00016062, "INCLINATION": 43, "RA_OF_ASC_NODE": 205.2753, "ARG_OF_PERICENTER": 236.106, "MEAN_ANOMALY": 8.4548, "EPHEMERIS_TYPE": 0, "CLASSIFICATION_TYPE": "U", "NORAD_CAT_ID": 66603, "ELEMENT_SET_NO": 999, "REV_AT_EPOCH": 395, "BSTAR": -0.0037320591, "MEAN_MOTION_DOT": -0.0021405, "MEAN_MOTION_DDOT": 0}, "tle": {"line1": "1 66603U 25270R   25344.58336806 -.00214050  00000+0 -37321-2 0  9995", "line2": "2 66603  43.0000 205.2753 0001606 236.1060   8.4548 15.50662819  3954"}}, "geometry": {"type": "Point", "coordinates": [78.21504280130462, -37.295163190048626]}}, {"type": "Feature", "properties": {"norad_id": 66604, "name": "STARLINK-35977", "group": "last-30-days", "lat": -38.02604300751959, "lon": 80.44528275798744, "alt_km": 417.2920211896944, "timestamp": "2025-12-10T21:43:20.862798+00:00", "meta": {"OBJECT_NAME": "STARLINK-35977", "OBJECT_ID": "2025-270S", "EPOCH": "2025-12-10T14:00:03.000384", "MEAN_MOTION": 15.50659314, "ECCENTRICITY": 0.00015397, "INCLINATION": 42.9999, "RA_OF_ASC_NODE": 205.2704, "ARG_OF_PERICENTER": 238.3056, "MEAN_ANOMALY": 8.1733, "EPHEMERIS_TYPE": 0, "CLASSIFICATION_TYPE": "U", "NORAD_CAT_ID": 66604, "ELEMENT_SET_NO": 999, "REV_AT_EPOCH": 405, "BSTAR": -0.0035866896, "MEAN_MOTION_DOT": -0.0020591, "MEAN_MOTION_DDOT": 0}, "tle": {"line1": "1 66604U 25270S   25344.58336806 -.00205910  00000+0 -35867-2 0  9994", "line2": "2 66604  42.9999 205.2704 0001539 238.3056   8.1733 15.50659314  4051"}}, "geometry": {"type": "Point", "coordinates": [80.44528275798744, -38.02604300751959]}}, {"type": "Feature", "properties": {"norad_id": 66605, "name": "STARLINK-36052", "group": "last-30-days", "lat": -38.720727801811506, "lon": 82.74483374286655, "alt_km": 417.03928808151886, "timestamp": "2025-12-10T21:43:20.862808+00:00", "meta": {"OBJECT_NAME": "STARLINK-36052", "OBJECT_ID": "2025-270T", "EPOCH": "2025-12-10T14:00:03.000384", "MEAN_MOTION": 15.50677289, "ECCENTRICITY": 0.00018676, "INCLINATION": 42.9997, "RA_OF_ASC_NODE": 205.2668, "ARG_OF_PERICENTER": 251.4968, "MEAN_ANOMALY": 356.8993, "EPHEMERIS_TYPE": 0, "CLASSIFICATION_TYPE": "U", "NORAD_CAT_ID": 66605, "ELEMENT_SET_NO": 999, "REV_AT_EPOCH": 405, "BSTAR": -0.0034324755, "MEAN_MOTION_DOT": -0.00197418, "MEAN_MOTION_DDOT": 0}, "tle": {"line1": "1 66605U 25270T   25344.58336806 -.00197418  00000+0 -34325-2 0  9996", "line2": "2 66605  42.9997 205.2668 0001867 251.4968 356.8993 15.50677289  4053"}}, "geometry": {"type": "Point", "coordinates": [82.74483374286655, -38.720727801811506]}}, {"type": "Feature", "properties": {"norad_id": 66606, "name": "STARLINK-36063", "group": "last-30-days", "lat": -39.95351802177069, "lon": 87.3995708779729, "alt_km": 417.38553495841006, "timestamp": "2025-12-10T21:43:20.862820+00:00", "meta": {"OBJECT_NAME": "STARLINK-36063", "OBJECT_ID": "2025-270U", "EPOCH": "2025-12-10T14:00:03.000384", "MEAN_MOTION": 15.50659443, "ECCENTRICITY": 0.00015492, "INCLINATION": 42.9998, "RA_OF_ASC_NODE": 205.2561, "ARG_OF_PERICENTER": 238.6143, "MEAN_ANOMALY": 13.6181, "EPHEMERIS_TYPE": 0, "CLASSIFICATION_TYPE": "U", "NORAD_CAT_ID": 66606, "ELEMENT_SET_NO": 999, "REV_AT_EPOCH": 405, "BSTAR": -0.0035763866, "MEAN_MOTION_DOT": -0.00205336, "MEAN_MOTION_DDOT": 0}, "tle": {"line1": "1 66606U 25270U   25344.58336806 -.00205336  00000+0 -35764-2 0  9994", "line2": "2 66606  42.9998 205.2561 0001549 238.6143  13.6181 15.50659443  4055"}}, "geometry": {"type": "Point", "coordinates": [87.3995708779729, -39.95351802177069]}}, {"type": "Feature", "properties": {"norad_id": 66607, "name": "STARLINK-35993", "group": "last-30-days", "lat": -39.36378169435138, "lon": 85.06461106437582, "alt_km": 417.1030632164984, "timestamp": "2025-12-10T21:43:20.862830+00:00", "meta": {"OBJECT_NAME": "STARLINK-35993", "OBJECT_ID": "2025-270V", "EPOCH": "2025-12-10T14:00:03.000384", "MEAN_MOTION": 15.50689871, "ECCENTRICITY": 0.00018332, "INCLINATION": 42.9998, "RA_OF_ASC_NODE": 205.2619, "ARG_OF_PERICENTER": 252.8377, "MEAN_ANOMALY": 357.4731, "EPHEMERIS_TYPE": 0, "CLASSIFICATION_TYPE": "U", "NORAD_CAT_ID": 66607, "ELEMENT_SET_NO": 999, "REV_AT_EPOCH": 395, "BSTAR": -0.0038956891, "MEAN_MOTION_DOT": -0.0022338, "MEAN_MOTION_DDOT": 0}, "tle": {"line1": "1 66607U 25270V   25344.58336806 -.00223380  00000+0 -38957-2 0  9991", "line2": "2 66607  42.9998 205.2619 0001833 252.8377 357.4731 15.50689871  3959"}}, "geometry": {"type": "Point", "coordinates": [85.06461106437582, -39.36378169435138]}}, {"type": "Feature", "properties": {"norad_id": 66608, "name": "STARLINK-36036", "group": "last-30-days", "lat": -40.49997533631168, "lon": 89.79579034349923, "alt_km": 417.44694591023017, "timestamp": "2025-12-10T21:43:20.862842+00:00", "meta": {"OBJECT_NAME": "STARLINK-36036", "OBJECT_ID": "2025-270W", "EPOCH": "2025-12-10T14:00:03.000384", "MEAN_MOTION": 15.50659627, "ECCENTRICITY": 0.00015192, "INCLINATION": 42.9998, "RA_OF_ASC_NODE": 205.2513, "ARG_OF_PERICENTER": 238.8506, "MEAN_ANOMALY": 15.2993, "EPHEMERIS_TYPE": 0, "CLASSIFICATION_TYPE": "U", "NORAD_CAT_ID": 66608, "ELEMENT_SET_NO": 999, "REV_AT_EPOCH": 389, "BSTAR": -0.003689486, "MEAN_MOTION_DOT": -0.0021165, "MEAN_MOTION_DDOT": 0}, "tle": {"line1": "1 66608U 25270W   25344.58336806 -.00211650  00000+0 -36895-2 0  9998", "line2": "2 66608  42.9998 205.2513 0001519 238.8506  15.2993 15.50659627  3890"}}, "geometry": {"type": "Point", "coordinates": [89.79579034349923, -40.49997533631168]}}]}